CCSDS_OMM_VERS,COMMENT,CREATION_DATE,ORIGINATOR,OBJECT_NAME,OBJECT_ID,CENTER_NAME,REF_FRAME,TIME_SYSTEM,MEAN_ELEMENT_THEORY,EPOCH,MEAN_MOTION,ECCENTRICITY,INCLINATION,RA_OF_ASC_NODE,ARG_OF_PERICENTER,MEAN_ANOMALY,EPHEMERIS_TYPE,CLASSIFICATION_TYPE,NORAD_CAT_ID,ELEMENT_SET_NO,REV_AT_EPOCH,BSTAR,MEAN_MOTION_DOT,MEAN_MOTION_DDOT,SEMIMAJOR_AXIS,PERIOD,APOAPSIS,PERIAPSIS,OBJECT_TYPE,RCS_SIZE,COUNTRY_CODE,LAUNCH_DATE,SITE,DECAY_DATE,FILE,GP_ID,TLE_LINE0,TLE_LINE1,TLE_LINE2
3.0,GENERATED VIA SPACE-TRACK.ORG API,2004-05-28T19:12:35,18 SPCS,PSLV DEB,2001-049AL,EARTH,TEME,UTC,SGP4,2002-08-23T05:41:52.329408,16.20145349,0.002348,97.5267,317.9273,258.1295,135.492,0,U,27092,999,3694,0.0072441,0.14571759,2.4961e-06,6597.298,88.88,234.653,203.673,DEBRIS,SMALL,IND,2001-10-22,SRI,2002-08-23,6896,3492504,0 PSLV DEB,1 27092U 01049AL  02235.23741122 +.14571759 +24961-5 +72441-2 0  9994,2 27092 097.5267 317.9273 0023480 258.1295 135.4920 16.20145349036940
3.0,GENERATED VIA SPACE-TRACK.ORG API,2022-02-04T17:53:15,18 SPCS,USA 15 DEB,1986-014J,EARTH,TEME,UTC,SGP4,2022-02-04T10:35:59.835264,16.14473384,0.0045478,63.2576,54.879,87.2192,273.4169,0,U,44435,999,13779,0.0042267,0.06581891,8.1437e-06,6612.737,89.193,264.675,204.529,DEBRIS,SMALL,US,1986-02-09,AFWTR,2022-02-05,3291889,195298315,0 USA 15 DEB,1 44435U 86014J   22035.44166476  .06581891  81437-5  42267-2 0  9998,2 44435  63.2576  54.8790 0045478  87.2192 273.4169 16.14473384137791
3.0,GENERATED VIA SPACE-TRACK.ORG API,2014-12-24T17:15:54,18 SPCS,FENGYUN 1C DEB,1999-025DDD,EARTH,TEME,UTC,SGP4,2014-09-09T04:22:15.987071,15.30058508,0.0033569,97.7162,28.7571,65.7243,294.7486,0,U,33620,999,35775,0.011485,0.00355071,0.0,6853.774,94.114,498.646,452.632,DEBRIS,SMALL,PRC,1999-05-10,TSC,2014-10-03,1798825,97880725,0 FENGYUN 1C DEB,1 33620U 99025DDD 14252.18212948  .00355071  00000-0  11485-1 0  9999,2 33620 097.7162 028.7571 0033569 065.7243 294.7486 15.30058508357753
3.0,GENERATED VIA SPACE-TRACK.ORG API,2004-08-16T23:16:08,18 SPCS,SALYUT 7 DEB,1982-033M,EARTH,TEME,UTC,SGP4,1982-08-14T14:49:57.794591,16.04442692,0.0004615,51.6325,261.6586,296.7342,55.0583,0,U,13398,999,1855,0.0013747,0.00941672,5.8784e-06,6640.273,89.75,265.203,259.074,DEBRIS,MEDIUM,CIS,1982-04-19,TTMTR,1982-08-21,34349,12963611,0 SALYUT 7 DEB,1 13398U 82033  M 82226.61803003  .00941672 +58784-5 +13747-2 0  9991,2 13398 051.6325 261.6586 0004615 296.7342 055.0583 16.04442692018554
3.0,GENERATED VIA SPACE-TRACK.ORG API,2004-08-16T23:15:23,18 SPCS,SL-12 PLAT,1981-102C,EARTH,TEME,UTC,SGP4,1981-10-10T03:04:21.764351,16.49094336,0.0005206,51.6003,280.1274,93.675,266.4794,0,U,12899,999,4,0.00078803,0.60171281,5.7644e-05,6519.862,87.32,145.121,138.333,DEBRIS,,,,,1981-10-10,34334,12288158,0 SL-12 PLAT,1 12899U 81102  C 81283.12802968  .60171281 +57644-4 +78803-3 0  9994,2 12899 051.6003 280.1274 0005206 093.6750 266.4794 16.49094336000040
3.0,GENERATED VIA SPACE-TRACK.ORG API,2004-08-16T23:24:14,18 SPCS,SL-6 DEB,1985-117E,EARTH,TEME,UTC,SGP4,1986-01-06T08:56:52.088640,15.80868672,0.0137941,62.8222,279.7846,139.5761,222.478,0,U,16401,999,190,0.00076393,0.0030297,5.4209e-06,6706.124,91.089,420.494,235.484,DEBRIS,MEDIUM,CIS,1985-12-24,PKMTR,1986-01-20,34511,15001199,0 SL-6 DEB,1 16401U 85117E   86006.37282510  .00302970 +54209-5 +76393-3 0  9999,2 16401 062.8222 279.7846 0137941 139.5761 222.4780 15.80868672001902
3.0,GENERATED VIA SPACE-TRACK.ORG API,2015-08-20T15:31:44,18 SPCS,COSMOS 2251 DEB,1993-036BMQ,EARTH,TEME,UTC,SGP4,2015-05-08T05:51:20.157984,15.25071517,0.0014458,74.0862,331.775,186.1102,174.1989,0,U,37511,999,28173,0.0063294,0.0016226,0.0,6868.707,94.421,500.503,480.641,DEBRIS,SMALL,CIS,1993-06-16,PKMTR,2015-07-24,1915607,100098560,0 COSMOS 2251 DEB,1 37511U 93036BMQ 15128.24398331  .00162260  00000-0  63294-2 0  9991,2 37511 074.0862 331.7750 0014458 186.1102 174.1989 15.25071517281737
3.0,GENERATED VIA SPACE-TRACK.ORG API,2004-08-16T23:15:56,18 SPCS,COSMOS 1353 DEB,1982-036C,EARTH,TEME,UTC,SGP4,1982-05-10T10:03:55.016927,16.44446514,6.06e-05,82.3424,2.5686,57.2359,302.917,0,U,13159,999,276,0.00028117,0.0753149,-1.0162e-05,6532.142,87.567,154.402,153.611,DEBRIS,,,,,1982-05-10,34345,12900033,0 COSMOS 1353 DEB,1 13159U 82036  C 82130.41938677  .07531490 -10162-4 +28117-3 0  9993,2 13159 082.3424 002.5686 0000606 057.2359 302.9170 16.44446514002760
3.0,GENERATED VIA SPACE-TRACK.ORG API,2014-11-21T07:19:44,18 SPCS,IRIDIUM 33 DEB,1997-051QG,EARTH,TEME,UTC,SGP4,2014-11-20T23:35:51.409824,15.72304654,0.0026148,86.3757,311.9719,159.8501,256.7415,0,U,35486,999,29287,0.07886,0.13631403,0.0,6730.453,91.585,369.917,334.719,DEBRIS,SMALL,US,1997-09-14,TTMTR,2014-11-23,1781319,97573586,0 IRIDIUM 33 DEB,1 35486U 97051QG  14324.98323391  .13631403  00000-0  78860-1 0  9991,2 35486 086.3757 311.9719 0026148 159.8501 256.7415 15.72304654292870
3.0,GENERATED VIA SPACE-TRACK.ORG API,2004-08-17T15:28:18,18 SPCS,SL-18 DEB,2001-007D,EARTH,TEME,UTC,SGP4,2001-03-05T00:48:53.837280,15.65591344,0.0048576,97.7802,74.6624,187.3239,183.3029,0,U,26705,999,188,0.12816,0.17912824,0.0,6749.679,91.978,404.332,338.757,DEBRIS,MEDIUM,CIS,2001-02-20,SVOB,2001-03-05,35615,36096945,0 SL-18 DEB,1 26705U 01007D   01064.03395645  .17912824  00000-0  12816+0 0  9995,2 26705 097.7802 074.6624 0048576 187.3239 183.3029 15.65591344  1883
3.0,GENERATED VIA SPACE-TRACK.ORG API,2004-08-15T23:36:23,18 SPCS,SL-6 R/B(1),1968-057B,EARTH,TEME,UTC,SGP4,1968-08-08T15:28:21.050975,16.34195143,0.0014354,65.0288,68.9766,45.4831,314.7411,0,U,3311,999,542,0.0,0.0445035,0.0,6559.431,88.116,190.711,171.88,ROCKET BODY,,,,,1968-08-09,33926,8788138,0 SL-6 R/B(1),1 03311U 68057  B 68221.64468809  .04450350 +00000-0 +00000-0 0  9999,2 03311 065.0288 068.9766 0014354 045.4831 314.7411 16.34195143005422
3.0,GENERATED VIA SPACE-TRACK.ORG API,2004-08-16T23:24:14,18 SPCS,COSMOS 1731,1986-013A,EARTH,TEME,UTC,SGP4,1986-10-02T22:03:45.209664,16.08949815,0.0028627,64.7397,141.6548,83.4722,276.9612,0,U,16589,999,3822,0.00014508,0.00135262,5.8078e-06,6627.867,89.499,268.705,230.758,PAYLOAD,LARGE,CIS,1986-02-07,TTMTR,1986-10-03,34511,15022047,0 COSMOS 1731,1 16589U 86013A   86275.91927326  .00135262 +58078-5 +14508-3 0  9997,2 16589 064.7397 141.6548 0028627 083.4722 276.9612 16.08949815038226
3.0,GENERATED VIA SPACE-TRACK.ORG API,2004-08-16T23:15:23,18 SPCS,COSMOS 1313 DEB,1981-099D,EARTH,TEME,UTC,SGP4,1981-10-15T23:35:02.808960,16.15013881,0.0030641,70.3477,145.413,38.2287,333.6381,0,U,12910,999,235,0.00023284,0.00334632,3.9538e-06,6611.265,89.163,253.388,212.873,DEBRIS,,,,,1981-10-16,34334,12289018,0 COSMOS 1313 DEB,1 12910U 81099  D 81288.98267140  .00334632 +39538-5 +23284-3 0  9990,2 12910 070.3477 145.4130 0030641 038.2287 333.6381 16.15013881002356
3.0,GENERATED VIA SPACE-TRACK.ORG API,2010-09-02T08:19:21,18 SPCS,SL-12 PLAT,2010-041E,EARTH,TEME,UTC,SGP4,2010-09-02T09:33:34.789248,16.4847651,0.0005934,64.8102,28.3107,309.1663,53.1007,0,U,37141,999,3,0.00048569,0.32977145,7.7823e-06,6521.491,87.353,147.226,139.486,DEBRIS,,CIS,2010-09-02,,2010-09-02,955587,79357204,0 SL-12 PLAT,1 37141U 10041E   10245.39831932  .32977145  77823-5  48569-3 0  9997,2 37141 064.8102 028.3107 0005934 309.1663 053.1007 16.48476510    30
3.0,GENERATED VIA SPACE-TRACK.ORG API,2005-04-29T09:12:45,18 SPCS,SL-11 DEB,1987-060C,EARTH,TEME,UTC,SGP4,1990-02-10T23:50:49.758144,15.95202752,0.0017375,64.9455,5.4858,171.0803,188.7145,0,U,18191,999,13672,0.02776,0.11170574,0.0,6665.89,90.27,299.337,276.173,DEBRIS,LARGE,CIS,1987-07-10,TTMTR,1990-02-11,131174,44923134,0 SL-11 DEB,1 18191U 87060  C 90041.99363146  .11170574 +00000-0 +27760-1 0  9995,2 18191 064.9455 005.4858 0017375 171.0803 188.7145 15.95202752136729
3.0,GENERATED VIA SPACE-TRACK.ORG API,2024-08-12T17:41:48,18 SPCS,FREGAT DEB,2011-037AX,EARTH,TEME,UTC,SGP4,2024-08-11T22:53:12.898464,14.85093421,0.0205751,51.4663,70.324,355.0738,4.8195,0,U,45813,999,18213,0.32409,0.04614988,0.0,6991.43,96.964,757.144,469.445,DEBRIS,SMALL,CIS,2011-07-18,TTMTR,2024-08-15,4431433,264936637,0 FREGAT DEB,1 45813U 11037AX  24224.95362151  .04614988  00000-0  32409+0 0  9996,2 45813  51.4663  70.3240 0205751 355.0738   4.8195 14.85093421182134
3.0,GENERATED VIA SPACE-TRACK.ORG API,2009-08-20T04:26:05,18 SPCS,FENGYUN 1C DEB,1999-025DNM,EARTH,TEME,UTC,SGP4,2009-08-08T08:25:35.757984,15.70721872,0.0044269,98.9377,1.3358,154.4882,218.5226,0,U,35181,999,8473,0.0057624,0.00822844,0.0,6734.974,91.677,386.654,327.023,DEBRIS,SMALL,PRC,1999-05-10,TSC,2009-08-23,761151,72678950,0 FENGYUN 1C DEB,1 35181U 99025DNM 09220.35110831  .00822844  00000-0  57624-2 0  9992,2 35181 098.9377 001.3358 0044269 154.4882 218.5226 15.70721872 84738
3.0,GENERATED VIA SPACE-TRACK.ORG API,2004-08-17T14:36:30,18 SPCS,COSMOS 1942,1988-037A,EARTH,TEME,UTC,SGP4,1988-07-04T11:12:03.739679,16.17238194,0.0088456,67.1291,257.9821,116.1625,245.0053,0,U,19115,999,851,0.00029815,0.01023203,2.448e-05,6605.202,89.04,285.494,168.64,PAYLOAD,LARGE,CIS,1988-05-12,PKMTR,1988-07-04,34579,16228659,0 COSMOS 1942,1 19115U 88037  A 88186.46670995  .01023203 +24480-4 +29815-3 0  9991,2 19115 067.1291 257.9821 0088456 116.1625 245.0053 16.17238194008517
3.0,GENERATED VIA SPACE-TRACK.ORG API,2023-02-21T18:44:19,18 SPCS,FLOCK 3P 84,2017-008CB,EARTH,TEME,UTC,SGP4,2023-02-17T15:53:33.404352,16.25491666,0.0010436,97.2466,126.8418,308.9769,51.0592,0,U,42021,999,33516,0.0019623,0.05790699,2.3541e-06,6582.82,88.589,211.555,197.816,PAYLOAD,SMALL,US,2017-02-15,SRI,2023-02-18,3819803,226268730,0 FLOCK 3P 84,1 42021U 17008CB  23048.66219218  .05790699  23541-5  19623-2 0  9995,2 42021  97.2466 126.8418 0010436 308.9769  51.0592 16.25491666335167
